[{"OBJECT_NAME":"OBJECT J","OBJECT_ID":"2023-085J","EPOCH":"2026-03-09T22:47:59.920512","MEAN_MOTION":15.31507187,"ECCENTRICITY":0.00067028,"INCLINATION":97.4828,"RA_OF_ASC_NODE":180.1819,"ARG_OF_PERICENTER":41.7877,"MEAN_ANOMALY":318.3875,"EPHEMERIS_TYPE":0,"CLASSIFICATION_TYPE":"U","NORAD_CAT_ID":57012,"ELEMENT_SET_NO":999,"REV_AT_EPOCH":15156,"BSTAR":0.00064525349,"MEAN_MOTION_DOT":0.00019595,"MEAN_MOTION_DDOT":0},{"OBJECT_NAME":"STARLINK-34330","OBJECT_ID":"2025-117AA","EPOCH":"2026-03-09T22:23:27.483936","MEAN_MOTION":15.30208324,"ECCENTRICITY":0.00013017,"INCLINATION":53.1603,"RA_OF_ASC_NODE":38.4165,"ARG_OF_PERICENTER":102.1747,"MEAN_ANOMALY":257.9399,"EPHEMERIS_TYPE":0,"CLASSIFICATION_TYPE":"U","NORAD_CAT_ID":64227,"ELEMENT_SET_NO":999,"REV_AT_EPOCH":4456,"BSTAR":0.00092481026,"MEAN_MOTION_DOT":0.00027138,"MEAN_MOTION_DDOT":0}]
